STARLINK-3198           
1 49763U 21115AR  24085.76263562 -.00000209  00000+0  49947-5 0  9994
2 49763  53.2171 104.0643 0001625  86.9155 273.2023 15.08839229129015
STARLINK-3206           
1 49764U 21115AS  24085.25111135 -.00005513  00000+0 -32863-3 0  9998
2 49764  53.2147 106.3614 0001705  86.8465 273.2722 15.08832991128939
STARLINK-3227           
1 49765U 21115AT  24084.77735766  .00005280  00000+0  34960-3 0  9996
2 49765  53.2175 108.4915 0001550  93.2158 266.9012 15.08837953127750
STARLINK-3190           
1 49766U 21115AU  24085.78566264  .00003973  00000+0  26750-3 0  9999
2 49766  53.2149 103.9663 0001372  97.0437 263.0711 15.08851528129015
STARLINK-3192           
1 49767U 21115AV  24085.24744044  .00007245  00000+0  47273-3 0  9994
2 49767  53.2154 106.3756 0001930  91.9567 268.1646 15.08845959128933
STARLINK-3196           
1 49768U 21115AW  24085.19591079  .00001608  00000+0  11909-3 0  9991
2 49768  53.2144 106.6072 0001608  91.4690 268.6486 15.08842263128922
STARLINK-3208           
1 49769U 21115AX  24085.19687392 -.00000302  00000+0 -87682-6 0  9992
2 49769  53.2153 106.6517 0001792  93.5202 266.5995 15.08841168128928
STARLINK-3191           
1 49770U 21115AY  24085.20423650  .00016244  00000+0  10364-2 0  9990
2 49770  53.2154 106.6174 0001181  64.1069 296.0045 15.08837272128922
STARLINK-3201           
1 49771U 21115AZ  24085.46823194  .00012393  00000+0  79518-3 0  9994
2 49771  53.2154 105.3834 0001445  88.4457 271.6701 15.08849817128965
STARLINK-3317           
1 50156U 21125A   24085.68354856  .00004831  00000+0  32129-3 0  9997
2 50156  53.2167 214.4159 0001387  94.8824 265.2326 15.08854055128337
STARLINK-3313           
1 50157U 21125B   24085.77367044  .00038598  00000+0  24288-2 0  9994
2 50157  53.2156 224.0135 0001759  86.5454 273.5740 15.08858547125594
STARLINK-3309           
1 50158U 21125C   24085.76361426 -.00002035  00000+0 -10982-3 0  9998
2 50158  53.2177 224.0658 0001519  85.0802 275.0364 15.08824631125599
STARLINK-3297           
1 50159U 21125D   24085.69366631 -.00012116  00000+0 -74489-3 0  9997
2 50159  53.2158 224.3868 0001523 106.3113 253.8047 15.08817095125129
STARLINK-3288           
1 50160U 21125E   24085.36887940  .00008295  00000+0  53855-3 0  9999
2 50160  53.2171 225.8324 0001506  89.5493 270.5672 15.08845205128131
STARLINK-3304           
1 50161U 21125F   24085.57127060  .00001239  00000+0  95919-4 0  9992
2 50161  53.2168 224.9182 0002004  92.5407 267.5815 15.08841218128161
STARLINK-3306           
1 50163U 21125H   24085.62095144  .00003243  00000+0  22167-3 0  9998
2 50163  53.2162 204.6833 0001304  85.7398 274.3744 15.08848331128452
STARLINK-3298           
1 50165U 21125K   24085.75527265  .00002693  00000+0  18720-3 0  9996
2 50165  53.2166 224.0966 0001355 100.8929 259.2215 15.08846451125594
STARLINK-3305           
1 50166U 21125L   24085.57313989  .00005519  00000+0  36459-3 0  9992
2 50166  53.2169 214.8444 0001389  77.1530 282.9617 15.08840830125704
STARLINK-3271           
1 50167U 21125M   24085.55016426 -.00004170  00000+0 -24418-3 0  9993
2 50167  53.2161 225.0194 0001311  77.0338 283.0800 15.08821539128167
STARLINK-3296           
1 50168U 21125N   24085.51796157  .00001554  00000+0  11574-3 0  9996
2 50168  53.2177 215.2547 0002325 132.1960 227.9230 15.08836555125691
STARLINK-3301           
1 50169U 21125P   24085.67890870  .00009054  00000+0  58586-3 0  9998
2 50169  53.2164 214.4398 0001402  83.2351 276.8801 15.08861055125722
STARLINK-3245           
1 50170U 21125Q   24085.50227676  .00008763  00000+0  56781-3 0  9991
2 50170  53.2154 215.2316 0001648  99.8810 260.2369 15.08850810128295
STARLINK-3286           
1 50171U 21125R   24085.64947068  .00002606  00000+0  18173-3 0  9994
2 50171  53.2177 214.5729 0001284  81.2258 278.8880 15.08841885128316
STARLINK-3287           
1 50172U 21125S   24085.56115142  .00006625  00000+0  43397-3 0  9997
2 50172  53.2167 214.9678 0001784  83.8605 276.2590 15.08835979128308
STARLINK-3289           
1 50173U 21125T   24085.52895840  .00000860  00000+0  72101-4 0  9995
2 50173  53.2166 205.1807 0001783  76.7522 283.3669 15.08844274125842
STARLINK-3292           
1 50174U 21125U   24085.55009598 -.00019856  00000+0 -12340-2 0  9990
2 50174  53.2157 215.0157 0001216 120.9656 239.1456 15.08808256128310
STARLINK-3291           
1 50175U 21125V   24085.63842612  .00000033  00000+0  20128-4 0  9992
2 50175  53.2162 214.6133 0001063  90.9339 269.1775 15.08861041128318
STARLINK-3293           
1 50176U 21125W   24085.55378867  .00008482  00000+0  55027-3 0  9991
2 50176  53.2161 215.0014 0001841  81.7806 278.3395 15.08846477125708
STARLINK-3282           
1 50177U 21125X   24085.49859147  .00004342  00000+0  29064-3 0  9993
2 50177  53.2164 215.2405 0002255 124.1990 235.9217 15.08850625128293
STARLINK-3284           
1 50178U 21125Y   24085.51058381 -.00003825  00000+0 -22243-3 0  9997
2 50178  53.2156 215.0453 0001381  64.2163 295.8972 15.08825093128295
STARLINK-3283           
1 50179U 21125Z   24085.55747269  .00020042  00000+0  12740-2 0  9990
2 50179  53.2163 214.9855 0001924  90.2042 269.9171 15.08833605128309
STARLINK-3265           
1 50180U 21125AA  24085.67619972  .00001724  00000+0  12639-3 0  9998
2 50180  53.2168 214.4603 0001438  93.8650 266.2507 15.08837797125728
STARLINK-3285           
1 50181U 21125AB  24085.53634774  .00008561  00000+0  55523-3 0  9996
2 50181  53.2162 215.0905 0001713  98.1000 262.0187 15.08845926128306
STARLINK-3277           
1 50182U 21125AC  24085.51330134 -.00003039  00000+0 -17303-3 0  9999
2 50182  53.2148 215.0248 0000992 117.6932 242.4161 15.08826774128304
STARLINK-3281           
1 50183U 21125AD  24085.73042894 -.00004108  00000+0 -24025-3 0  9994
2 50183  53.2169 214.2048 0001188  91.8722 268.2406 15.08828597125732
STARLINK-3279           
1 50185U 21125AF  24085.74147746  .00005135  00000+0  34039-3 0  9994
2 50185  53.2165 214.1924 0001411 100.3172 259.7979 15.08850112128344
STARLINK-3274           
1 50186U 21125AG  24085.81784061  .00001664  00000+0  12262-3 0  9997
2 50186  53.2171 223.8153 0001333  98.2440 261.8703 15.08833172128211
STARLINK-3272           
1 50187U 21125AH  24085.51422947  .00005175  00000+0  34285-3 0  9997
2 50187  53.2163 205.1763 0002010 126.6618 233.4559 15.08853991125839
STARLINK-3275           
1 50188U 21125AJ  24085.55089744  .00002201  00000+0  14328-3 0  9999
2 50188  53.2175 184.5870 0001367  93.6845 266.4305 15.12134301126121
STARLINK-3276           
1 50189U 21125AK  24085.65410572  .00008050  00000+0  52312-3 0  9991
2 50189  53.2178 214.5627 0001564 102.4600 257.6567 15.08854185128326
STARLINK-3268           
1 50190U 21125AL  24085.56942571 -.00000829  00000+0 -33959-4 0  9997
2 50190  53.2179 204.9321 0001924  84.9721 275.1491 15.08843968128442
STARLINK-3273           
1 50191U 21125AM  24085.37991640 -.00003216  00000+0 -18412-3 0  9997
2 50191  53.2155 225.7786 0001443  99.8348 260.2807 15.08828982125531
STARLINK-3259           
1 50192U 21125AN  24085.76446843  .00003627  00000+0  24582-3 0  9990
2 50192  53.2170 204.0533 0001297  81.5958 278.5181 15.08848590125861
STARLINK-3261           
1 50193U 21125AP  24085.51055974  .00003292  00000+0  22482-3 0  9990
2 50193  53.2176 205.2002 0002835  88.7835 271.3482 15.08846384128434
STARLINK-3269           
1 50194U 21125AQ  24085.56302675  .00002947  00000+0  20312-3 0  9995
2 50194  53.2174 204.9694 0001668 107.7327 252.3847 15.08847482128442
STARLINK-3266           
1 50195U 21125AR  24085.50687183  .00018687  00000+0  11894-2 0  9992
2 50195  53.2172 205.2092 0002019  86.2959 273.8264 15.08829416128437
STARLINK-3263           
1 50196U 21125AS  24085.91667824  .00144639  00000+0  91277-3 0  9999
2 50196  53.2157 186.4746 0005330   8.6378  82.5401 15.75695735128739
STARLINK-3267           
1 50197U 21125AT  24085.55838734  .00002965  00000+0  20429-3 0  9996
2 50197  53.2180 204.9747 0001834 118.8897 241.2279 15.08844888128444
STARLINK-3264           
1 50198U 21125AU  24085.54366816  .00005615  00000+0  37054-3 0  9990
2 50198  53.2166 205.0422 0001292 100.3004 259.8134 15.08845344128448
STARLINK-3270           
1 50199U 21125AV  24085.59150689 -.00001906  00000+0 -10171-3 0  9997
2 50199  53.2163 204.8322 0001084  90.8420 269.2696 15.08838175128448
STARLINK-3235           
1 50200U 21125AW  24085.54734663  .00002938  00000+0  20258-3 0  9996
2 50200  53.2158 204.9795 0001365  99.3351 260.7796 15.08848059128459
STARLINK-3255           
1 50201U 21125AX  24085.54093952 -.00008268  00000+0 -50200-3 0  9990
2 50201  53.2172 205.0602 0001991 135.7988 224.3164 15.08837240128445
STARLINK-3256           
1 50202U 21125AY  24085.58783144 -.00000532  00000+0 -15305-4 0  9998
2 50202  53.2156 204.8522 0001287  88.9055 271.2084 15.08847558128443
STARLINK-3257           
1 50203U 21125AZ  24085.62191181  .00030529  00000+0  19262-2 0  9999
2 50203  53.2161 204.7788 0001305  81.6894 278.4246 15.08874256125851
STARLINK-3254           
1 50204U 21125BA  24085.72863208 -.00017534  00000+0 -10871-2 0  9997
2 50204  53.2169 204.2246 0001306 112.8840 247.2290 15.08812992125877
STARLINK-3260           
1 50205U 21125BB  24085.53635622 -.00005503  00000+0 -32804-3 0  9998
2 50205  53.2166 175.0796 0001410  99.8625 260.2526 15.08824045128873
STARLINK-3258           
1 50206U 21125BC  24085.65500552  .00016774  00000+0  10687-2 0  9999
2 50206  53.2151 204.4413 0001792  77.1889 282.9303 15.08866333126862
STARLINK-3262           
1 50207U 21125BD  24085.53630476  .00000407  00000+0  43698-4 0  9992
2 50207  53.2163 205.0750 0001805 111.4191 248.6994 15.08845007126916
STARLINK-3321           
1 50803U 22001A   24085.85189261 -.00001539  00000+0 -78646-4 0  9994
2 50803  53.2173 133.6612 0002153  83.2938 276.8299 15.08824548123919
